{"images": [{"postal_code": "98105", "name": "12_0.0.jpg"}, {"postal_code": "98105", "name": "12_23.0.jpg"}, {"postal_code": "98105", "name": "12_46.0.jpg"}, {"postal_code": "98105", "name": "12_69.0.jpg"}, {"postal_code": "98105", "name": "12_92.0.jpg"}, {"postal_code": "98105", "name": "12_115.0.jpg"}, {"postal_code": "98105", "name": "12_138.0.jpg"}, {"postal_code": "98105", "name": "12_161.0.jpg"}, {"postal_code": "98105", "name": "12_184.0.jpg"}, {"postal_code": "98105", "name": "12_207.0.jpg"}, {"postal_code": "98105", "name": "12_230.0.jpg"}, {"postal_code": "98105", "name": "12_253.0.jpg"}, {"postal_code": "98105", "name": "12_276.0.jpg"}, {"postal_code": "98105", "name": "12_299.0.jpg"}, {"postal_code": "98105", "name": "12_322.0.jpg"}, {"postal_code": "98105", "name": "12_345.0.jpg"}, {"postal_code": "98105", "name": "12_368.0.jpg"}, {"postal_code": "98105", "name": "12_391.0.jpg"}, {"postal_code": "98105", "name": "12_414.0.jpg"}, {"postal_code": "98105", "name": "12_437.0.jpg"}, {"postal_code": "98105", "name": "12_460.0.jpg"}, {"postal_code": "98105", "name": "12_483.0.jpg"}, {"postal_code": "98105", "name": "12_506.0.jpg"}, {"postal_code": "98105", "name": "12_529.0.jpg"}, {"postal_code": "98105", "name": "12_552.0.jpg"}, {"postal_code": "98105", "name": "12_575.0.jpg"}, {"postal_code": "98105", "name": "12_598.0.jpg"}, {"postal_code": "98105", "name": "12_621.0.jpg"}, {"postal_code": "98105", "name": "12_644.0.jpg"}, {"postal_code": "98105", "name": "12_667.0.jpg"}, {"postal_code": "98105", "name": "12_690.0.jpg"}, {"postal_code": "98105", "name": "12_713.0.jpg"}, {"postal_code": "98105", "name": "12_736.0.jpg"}, {"postal_code": "98105", "name": "12_759.0.jpg"}, {"postal_code": "98105", "name": "12_782.0.jpg"}, {"postal_code": "98105", "name": "12_805.0.jpg"}, {"postal_code": "98105", "name": "12_828.0.jpg"}, {"postal_code": "98105", "name": "12_851.0.jpg"}, {"postal_code": "98105", "name": "12_874.0.jpg"}, {"postal_code": "98105", "name": "12_897.0.jpg"}, {"postal_code": "98105", "name": "12_920.0.jpg"}, {"postal_code": "98105", "name": "12_943.0.jpg"}, {"postal_code": "98105", "name": "12_966.0.jpg"}, {"postal_code": "98105", "name": "12_989.0.jpg"}, {"postal_code": "98105", "name": "12_1012.0.jpg"}, {"postal_code": "98105", "name": "12_1035.0.jpg"}, {"postal_code": "98105", "name": "12_1058.0.jpg"}, {"postal_code": "98105", "name": "12_1081.0.jpg"}, {"postal_code": "98105", "name": "12_1104.0.jpg"}, {"postal_code": "98105", "name": "12_1127.0.jpg"}, {"postal_code": "98105", "name": "12_1150.0.jpg"}, {"postal_code": "98105", "name": "12_1173.0.jpg"}, {"postal_code": "98105", "name": "12_1196.0.jpg"}, {"postal_code": "98105", "name": "12_1219.0.jpg"}, {"postal_code": "98105", "name": "12_1242.0.jpg"}, {"postal_code": "98105", "name": "12_1265.0.jpg"}, {"postal_code": "98105", "name": "12_1288.0.jpg"}, {"postal_code": "98105", "name": "12_1311.0.jpg"}, {"postal_code": "98105", "name": "12_1334.0.jpg"}, {"postal_code": "98105", "name": "12_1357.0.jpg"}, {"postal_code": "98105", "name": "12_1380.0.jpg"}, {"postal_code": "98105", "name": "12_1403.0.jpg"}, {"postal_code": "98105", "name": "12_1426.0.jpg"}, {"postal_code": "98105", "name": "12_1449.0.jpg"}, {"postal_code": "98105", "name": "12_1472.0.jpg"}, {"postal_code": "98105", "name": "12_1495.0.jpg"}, {"postal_code": "98105", "name": "12_1518.0.jpg"}, {"postal_code": "98105", "name": "12_1541.0.jpg"}, {"postal_code": "98105", "name": "12_1564.0.jpg"}, {"postal_code": "98105", "name": "12_1587.0.jpg"}, {"postal_code": "98105", "name": "12_1610.0.jpg"}, {"postal_code": "98105", "name": "12_1633.0.jpg"}, {"postal_code": "98105", "name": "12_1656.0.jpg"}, {"postal_code": "98105", "name": "12_1679.0.jpg"}, {"postal_code": "98105", "name": "12_1702.0.jpg"}, {"postal_code": "98105", "name": "12_1725.0.jpg"}, {"postal_code": "98105", "name": "12_1748.0.jpg"}, {"postal_code": "98105", "name": "12_1771.0.jpg"}, {"postal_code": "98105", "name": "12_1794.0.jpg"}, {"postal_code": "98105", "name": "12_1817.0.jpg"}, {"postal_code": "98105", "name": "12_1840.0.jpg"}, {"postal_code": "98105", "name": "12_1863.0.jpg"}, {"postal_code": "98105", "name": "12_1886.0.jpg"}, {"postal_code": "98105", "name": "12_1909.0.jpg"}, {"postal_code": "98105", "name": "12_1932.0.jpg"}, {"postal_code": "98105", "name": "12_1955.0.jpg"}, {"postal_code": "98105", "name": "12_1978.0.jpg"}, {"postal_code": "98105", "name": "12_2001.0.jpg"}, {"postal_code": "98105", "name": "12_2024.0.jpg"}, {"postal_code": "98105", "name": "12_2047.0.jpg"}, {"postal_code": "98105", "name": "12_2070.0.jpg"}, {"postal_code": "98105", "name": "12_2093.0.jpg"}, {"postal_code": "98105", "name": "12_2116.0.jpg"}, {"postal_code": "98105", "name": "12_2139.0.jpg"}, {"postal_code": "98105", "name": "12_2162.0.jpg"}, {"postal_code": "98105", "name": "12_2185.0.jpg"}, {"postal_code": "98105", "name": "12_2208.0.jpg"}, {"postal_code": "98105", "name": "12_2231.0.jpg"}, {"postal_code": "98105", "name": "12_2254.0.jpg"}, {"postal_code": "98105", "name": "12_2277.0.jpg"}, {"postal_code": "98105", "name": "12_2300.0.jpg"}, {"postal_code": "98105", "name": "12_2323.0.jpg"}, {"postal_code": "98105", "name": "12_2346.0.jpg"}, {"postal_code": "98105", "name": "12_2369.0.jpg"}, {"postal_code": "98105", "name": "12_2392.0.jpg"}, {"postal_code": "98105", "name": "12_2415.0.jpg"}, {"postal_code": "98105", "name": "12_2438.0.jpg"}, {"postal_code": "98105", "name": "12_2461.0.jpg"}, {"postal_code": "98105", "name": "12_2484.0.jpg"}, {"postal_code": "98105", "name": "12_2507.0.jpg"}, {"postal_code": "98105", "name": "12_2530.0.jpg"}, {"postal_code": "98105", "name": "12_2553.0.jpg"}, {"postal_code": "98105", "name": "12_2576.0.jpg"}, {"postal_code": "98105", "name": "12_2599.0.jpg"}, {"postal_code": "98105", "name": "12_2622.0.jpg"}, {"postal_code": "98105", "name": "12_2645.0.jpg"}, {"postal_code": "98105", "name": "12_2668.0.jpg"}, {"postal_code": "98105", "name": "12_2691.0.jpg"}, {"postal_code": "98105", "name": "12_2714.0.jpg"}, {"postal_code": "98105", "name": "12_2737.0.jpg"}, {"postal_code": "98105", "name": "12_2760.0.jpg"}, {"postal_code": "98105", "name": "12_2783.0.jpg"}, {"postal_code": "98105", "name": "12_2806.0.jpg"}, {"postal_code": "98105", "name": "12_2829.0.jpg"}, {"postal_code": "98105", "name": "12_2852.0.jpg"}, {"postal_code": "98105", "name": "12_2875.0.jpg"}, {"postal_code": "98105", "name": "12_2898.0.jpg"}, {"postal_code": "98105", "name": "12_2921.0.jpg"}, {"postal_code": "98105", "name": "12_2944.0.jpg"}, {"postal_code": "98105", "name": "12_2967.0.jpg"}, {"postal_code": "98105", "name": "12_2990.0.jpg"}, {"postal_code": "98105", "name": "12_3013.0.jpg"}, {"postal_code": "98105", "name": "12_3036.0.jpg"}, {"postal_code": "98105", "name": "12_3059.0.jpg"}, {"postal_code": "98105", "name": "12_3082.0.jpg"}, {"postal_code": "98105", "name": "12_3105.0.jpg"}, {"postal_code": "98105", "name": "12_3128.0.jpg"}, {"postal_code": "98105", "name": "12_3151.0.jpg"}, {"postal_code": "98105", "name": "12_3174.0.jpg"}, {"postal_code": "98105", "name": "12_3197.0.jpg"}, {"postal_code": "98105", "name": "12_3220.0.jpg"}, {"postal_code": "98105", "name": "12_3243.0.jpg"}, {"postal_code": "98105", "name": "12_3266.0.jpg"}, {"postal_code": "98105", "name": "12_3289.0.jpg"}, {"postal_code": "98105", "name": "12_3312.0.jpg"}, {"postal_code": "98105", "name": "12_3335.0.jpg"}, {"postal_code": "98105", "name": "12_3358.0.jpg"}, {"postal_code": "98105", "name": "12_3381.0.jpg"}, {"postal_code": "98105", "name": "12_3404.0.jpg"}, {"postal_code": "98105", "name": "12_3427.0.jpg"}, {"postal_code": "98105", "name": "12_3450.0.jpg"}, {"postal_code": "98105", "name": "12_3473.0.jpg"}, {"postal_code": "98105", "name": "12_3496.0.jpg"}, {"postal_code": "98105", "name": "12_3519.0.jpg"}, {"postal_code": "98105", "name": "12_3542.0.jpg"}, {"postal_code": "98105", "name": "12_3565.0.jpg"}, {"postal_code": "98105", "name": "12_3588.0.jpg"}, {"postal_code": "98105", "name": "12_3611.0.jpg"}, {"postal_code": "98105", "name": "12_3634.0.jpg"}, {"postal_code": "98105", "name": "12_3657.0.jpg"}, {"postal_code": "98105", "name": "12_3680.0.jpg"}], "name": "dataset18.zip", "licence_fee": 5.0}